{"fetched_at":"2026-07-19T07:05:14.667Z","source":"https://celestrak.org/NORAD/elements/gp.php?NAME=HULIANWANG&FORMAT=JSON","constellation":"guowang","records":[{"OBJECT_NAME":"HULIANWANG DIGUI-92","OBJECT_ID":"2025-231F","EPOCH":"2026-07-18T18:46:24.124224","CLASSIFICATION_TYPE":"U","MEAN_MOTION":13.29329175,"ECCENTRICITY":0.0000503,"INCLINATION":50.0062,"RA_OF_ASC_NODE":62.3382,"ARG_OF_PERICENTER":355.1732,"MEAN_ANOMALY":4.9135,"EPHEMERIS_TYPE":0,"NORAD_CAT_ID":66000,"ELEMENT_SET_NO":999,"REV_AT_EPOCH":3709,"BSTAR":0.000043472,"MEAN_MOTION_DOT":-0.00000104,"MEAN_MOTION_DDOT":0},{"OBJECT_NAME":"HULIANWANG DIGUI-93","OBJECT_ID":"2025-231G","EPOCH":"2026-07-18T00:19:43.019040","CLASSIFICATION_TYPE":"U","MEAN_MOTION":13.29328093,"ECCENTRICITY":0.00005052,"INCLINATION":50.0028,"RA_OF_ASC_NODE":64.8814,"ARG_OF_PERICENTER":346.0708,"MEAN_ANOMALY":14.015,"EPHEMERIS_TYPE":0,"NORAD_CAT_ID":66001,"ELEMENT_SET_NO":999,"REV_AT_EPOCH":3699,"BSTAR":0.000044361031,"MEAN_MOTION_DOT":-0.00000103,"MEAN_MOTION_DDOT":0},{"OBJECT_NAME":"HULIANWANG DIGUI-94","OBJECT_ID":"2025-231H","EPOCH":"2026-07-17T22:43:43.023936","CLASSIFICATION_TYPE":"U","MEAN_MOTION":13.29326096,"ECCENTRICITY":0.00005293,"INCLINATION":50.0066,"RA_OF_ASC_NODE":65.2789,"ARG_OF_PERICENTER":348.4714,"MEAN_ANOMALY":11.6146,"EPHEMERIS_TYPE":0,"NORAD_CAT_ID":66002,"ELEMENT_SET_NO":999,"REV_AT_EPOCH":3698,"BSTAR":0.000047364125,"MEAN_MOTION_DOT":-0.00000102,"MEAN_MOTION_DDOT":0},{"OBJECT_NAME":"HULIANWANG DIGUI-95","OBJECT_ID":"2025-231J","EPOCH":"2026-07-18T19:58:34.748832","CLASSIFICATION_TYPE":"U","MEAN_MOTION":13.29332544,"ECCENTRICITY":0.0000491,"INCLINATION":50.0041,"RA_OF_ASC_NODE":61.898,"ARG_OF_PERICENTER":355.2868,"MEAN_ANOMALY":4.7999,"EPHEMERIS_TYPE":0,"NORAD_CAT_ID":66003,"ELEMENT_SET_NO":999,"REV_AT_EPOCH":3710,"BSTAR":0.000045714,"MEAN_MOTION_DOT":-0.00000103,"MEAN_MOTION_DDOT":0},{"OBJECT_NAME":"HULIANWANG DIGUI-96","OBJECT_ID":"2025-258A","EPOCH":"2026-07-18T15:07:57.429984","CLASSIFICATION_TYPE":"U","MEAN_MOTION":13.29327343,"ECCENTRICITY":0.000085,"INCLINATION":50.0022,"RA_OF_ASC_NODE":182.8654,"ARG_OF_PERICENTER":262.2111,"MEAN_ANOMALY":97.8664,"EPHEMERIS_TYPE":0,"NORAD_CAT_ID":66412,"ELEMENT_SET_NO":999,"REV_AT_EPOCH":3391,"BSTAR":0.000023969,"MEAN_MOTION_DOT":-0.00000113,"MEAN_MOTION_DDOT":0},{"OBJECT_NAME":"HULIANWANG DIGUI-97","OBJECT_ID":"2025-258B","EPOCH":"2026-07-18T08:42:58.610304","CLASSIFICATION_TYPE":"U","MEAN_MOTION":13.29326904,"ECCENTRICITY":0.00009829,"INCLINATION":49.9986,"RA_OF_ASC_NODE":184.0482,"ARG_OF_PERICENTER":260.76,"MEAN_ANOMALY":99.3161,"EPHEMERIS_TYPE":0,"NORAD_CAT_ID":66413,"ELEMENT_SET_NO":999,"REV_AT_EPOCH":3387,"BSTAR":0.000018073168,"MEAN_MOTION_DOT":-0.00000116,"MEAN_MOTION_DDOT":0},{"OBJECT_NAME":"HULIANWANG DIGUI-98","OBJECT_ID":"2025-258C","EPOCH":"2026-07-18T04:54:39.140352","CLASSIFICATION_TYPE":"U","MEAN_MOTION":13.29323358,"ECCENTRICITY":0.00010705,"INCLINATION":50.0027,"RA_OF_ASC_NODE":184.6241,"ARG_OF_PERICENTER":255.7144,"MEAN_ANOMALY":104.3609,"EPHEMERIS_TYPE":0,"NORAD_CAT_ID":66414,"ELEMENT_SET_NO":999,"REV_AT_EPOCH":3385,"BSTAR":0.000007469108,"MEAN_MOTION_DOT":-0.00000121,"MEAN_MOTION_DDOT":0},{"OBJECT_NAME":"HULIANWANG DIGUI-99","OBJECT_ID":"2025-258D","EPOCH":"2026-07-18T16:44:13.910208","CLASSIFICATION_TYPE":"U","MEAN_MOTION":13.29326609,"ECCENTRICITY":0.0000956,"INCLINATION":50.0023,"RA_OF_ASC_NODE":182.5548,"ARG_OF_PERICENTER":265.8563,"MEAN_ANOMALY":94.22,"EPHEMERIS_TYPE":0,"NORAD_CAT_ID":66415,"ELEMENT_SET_NO":999,"REV_AT_EPOCH":3391,"BSTAR":0.000025093,"MEAN_MOTION_DOT":-0.00000112,"MEAN_MOTION_DDOT":0},{"OBJECT_NAME":"HULIANWANG DIGUI-100","OBJECT_ID":"2025-258E","EPOCH":"2026-07-18T10:07:23.142432","CLASSIFICATION_TYPE":"U","MEAN_MOTION":13.29323387,"ECCENTRICITY":0.00009854,"INCLINATION":50.0024,"RA_OF_ASC_NODE":183.7759,"ARG_OF_PERICENTER":268.7091,"MEAN_ANOMALY":91.3668,"EPHEMERIS_TYPE":0,"NORAD_CAT_ID":66416,"ELEMENT_SET_NO":999,"REV_AT_EPOCH":3389,"BSTAR":0.000018513995,"MEAN_MOTION_DOT":-0.00000115,"MEAN_MOTION_DDOT":0},{"OBJECT_NAME":"HULIANWANG DIGUI-101","OBJECT_ID":"2025-258F","EPOCH":"2026-07-18T15:19:51.328992","CLASSIFICATION_TYPE":"U","MEAN_MOTION":13.2932726,"ECCENTRICITY":0.0000821,"INCLINATION":49.9976,"RA_OF_ASC_NODE":182.8137,"ARG_OF_PERICENTER":265.1337,"MEAN_ANOMALY":94.9441,"EPHEMERIS_TYPE":0,"NORAD_CAT_ID":66417,"ELEMENT_SET_NO":999,"REV_AT_EPOCH":3392,"BSTAR":0.000016588,"MEAN_MOTION_DOT":-0.00000116,"MEAN_MOTION_DDOT":0},{"OBJECT_NAME":"HULIANWANG DIGUI-102","OBJECT_ID":"2025-258G","EPOCH":"2026-07-18T09:19:12.255456","CLASSIFICATION_TYPE":"U","MEAN_MOTION":13.29323293,"ECCENTRICITY":0.00008618,"INCLINATION":49.999,"RA_OF_ASC_NODE":183.5179,"ARG_OF_PERICENTER":261.0073,"MEAN_ANOMALY":99.0702,"EPHEMERIS_TYPE":0,"NORAD_CAT_ID":66418,"ELEMENT_SET_NO":999,"REV_AT_EPOCH":3388,"BSTAR":0.000027213954,"MEAN_MOTION_DOT":-0.00000111,"MEAN_MOTION_DDOT":0},{"OBJECT_NAME":"HULIANWANG DIGUI-103","OBJECT_ID":"2025-258H","EPOCH":"2026-07-18T05:30:27.877248","CLASSIFICATION_TYPE":"U","MEAN_MOTION":13.2932645,"ECCENTRICITY":0.00009743,"INCLINATION":49.9984,"RA_OF_ASC_NODE":183.9982,"ARG_OF_PERICENTER":269.5047,"MEAN_ANOMALY":90.5713,"EPHEMERIS_TYPE":0,"NORAD_CAT_ID":66419,"ELEMENT_SET_NO":999,"REV_AT_EPOCH":3386,"BSTAR":0.000028592944,"MEAN_MOTION_DOT":-0.00000111,"MEAN_MOTION_DDOT":0},{"OBJECT_NAME":"HULIANWANG DIGUI-104","OBJECT_ID":"2025-258J","EPOCH":"2026-07-18T08:55:00.804576","CLASSIFICATION_TYPE":"U","MEAN_MOTION":13.29326475,"ECCENTRICITY":0.00009049,"INCLINATION":49.9999,"RA_OF_ASC_NODE":183.4555,"ARG_OF_PERICENTER":260.3256,"MEAN_ANOMALY":99.7514,"EPHEMERIS_TYPE":0,"NORAD_CAT_ID":66420,"ELEMENT_SET_NO":999,"REV_AT_EPOCH":3387,"BSTAR":0.000019773339,"MEAN_MOTION_DOT":-0.00000115,"MEAN_MOTION_DDOT":0},{"OBJECT_NAME":"HULIANWANG DIGUI-105","OBJECT_ID":"2025-285A","EPOCH":"2026-07-18T18:02:11.589792","CLASSIFICATION_TYPE":"U","MEAN_MOTION":13.29322777,"ECCENTRICITY":0.000094,"INCLINATION":50.0059,"RA_OF_ASC_NODE":33.0169,"ARG_OF_PERICENTER":46.6418,"MEAN_ANOMALY":313.4532,"EPHEMERIS_TYPE":0,"NORAD_CAT_ID":66915,"ELEMENT_SET_NO":999,"REV_AT_EPOCH":3025,"BSTAR":0.000042811,"MEAN_MOTION_DOT":-0.00000104,"MEAN_MOTION_DDOT":0},{"OBJECT_NAME":"HULIANWANG DIGUI-106","OBJECT_ID":"2025-285B","EPOCH":"2026-07-18T19:38:21.412032","CLASSIFICATION_TYPE":"U","MEAN_MOTION":13.29323211,"ECCENTRICITY":0.0000971,"INCLINATION":50.0071,"RA_OF_ASC_NODE":32.7245,"ARG_OF_PERICENTER":45.1123,"MEAN_ANOMALY":314.9828,"EPHEMERIS_TYPE":0,"NORAD_CAT_ID":66916,"ELEMENT_SET_NO":999,"REV_AT_EPOCH":3026,"BSTAR":0.000044227,"MEAN_MOTION_DOT":-0.00000104,"MEAN_MOTION_DDOT":0},{"OBJECT_NAME":"HULIANWANG DIGUI-107","OBJECT_ID":"2025-285C","EPOCH":"2026-07-18T19:26:07.116576","CLASSIFICATION_TYPE":"U","MEAN_MOTION":13.29326091,"ECCENTRICITY":0.0000953,"INCLINATION":50.0039,"RA_OF_ASC_NODE":32.6175,"ARG_OF_PERICENTER":50.0989,"MEAN_ANOMALY":309.9966,"EPHEMERIS_TYPE":0,"NORAD_CAT_ID":66917,"ELEMENT_SET_NO":999,"REV_AT_EPOCH":3026,"BSTAR":0.000020786,"MEAN_MOTION_DOT":-0.00000114,"MEAN_MOTION_DDOT":0}]}
