HULIANWANG DIGUI-92     
1 66000U 25231F   26199.78222366 -.00000104  00000+0  43472-4 0  9997
2 66000  50.0062  62.3382 0000503 355.1732   4.9135 13.29329175 37098
HULIANWANG DIGUI-93     
1 66001U 25231G   26199.01369235 -.00000103  00000+0  44361-4 0  9998
2 66001  50.0028  64.8814 0000505 346.0708  14.0150 13.29328093 36997
HULIANWANG DIGUI-94     
1 66002U 25231H   26198.94702574 -.00000102  00000+0  47364-4 0  9992
2 66002  50.0066  65.2789 0000529 348.4714  11.6146 13.29326096 36983
HULIANWANG DIGUI-95     
1 66003U 25231J   26199.83234663 -.00000103  00000+0  45714-4 0  9999
2 66003  50.0041  61.8980 0000491 355.2868   4.7999 13.29332544 37105
HULIANWANG DIGUI-96     
1 66412U 25258A   26199.63052581 -.00000113  00000+0  23969-4 0  9996
2 66412  50.0022 182.8654 0000850 262.2111  97.8664 13.29327343 33915
HULIANWANG DIGUI-97     
1 66413U 25258B   26199.36317836 -.00000116  00000+0  18073-4 0  9997
2 66413  49.9986 184.0482 0000982 260.7600  99.3161 13.29326904 33873
HULIANWANG DIGUI-98     
1 66414U 25258C   26199.20461968 -.00000121  00000+0  74691-5 0  9992
2 66414  50.0027 184.6241 0001070 255.7144 104.3609 13.29323358 33850
HULIANWANG DIGUI-99     
1 66415U 25258D   26199.69738322 -.00000112  00000+0  25093-4 0  9998
2 66415  50.0023 182.5548 0000956 265.8563  94.2200 13.29326609 33916
HULIANWANG DIGUI-100    
1 66416U 25258E   26199.42179563 -.00000115  00000+0  18514-4 0  9999
2 66416  50.0024 183.7759 0000985 268.7091  91.3668 13.29323387 33898
HULIANWANG DIGUI-101    
1 66417U 25258F   26199.63878853 -.00000116  00000+0  16588-4 0  9991
2 66417  49.9976 182.8137 0000821 265.1337  94.9441 13.29327260 33921
HULIANWANG DIGUI-102    
1 66418U 25258G   26199.38833629 -.00000111  00000+0  27214-4 0  9999
2 66418  49.9990 183.5179 0000861 261.0073  99.0702 13.29323293 33881
HULIANWANG DIGUI-103    
1 66419U 25258H   26199.22948932 -.00000111  00000+0  28593-4 0  9998
2 66419  49.9984 183.9982 0000974 269.5047  90.5713 13.29326450 33864
HULIANWANG DIGUI-104    
1 66420U 25258J   26199.37153709 -.00000115  00000+0  19773-4 0  9990
2 66420  49.9999 183.4555 0000904 260.3256  99.7514 13.29326475 33875
HULIANWANG DIGUI-105    
1 66915U 25285A   26199.75152303 -.00000104  00000+0  42811-4 0  9997
2 66915  50.0059  33.0169 0000940  46.6418 313.4532 13.29322777 30256
HULIANWANG DIGUI-106    
1 66916U 25285B   26199.81830338 -.00000104  00000+0  44227-4 0  9999
2 66916  50.0071  32.7245 0000971  45.1123 314.9828 13.29323211 30262
HULIANWANG DIGUI-107    
1 66917U 25285C   26199.80980459 -.00000114  00000+0  20786-4 0  9994
2 66917  50.0039  32.6175 0000953  50.0989 309.9966 13.29326091 30269
